{"type": "FeatureCollection", "features": [ {"type": "Feature", "properties": {"norad_id": 31566, "name": "FENGYUN 1C DEB", "group": "fengyun-1c-debris", "lat": 72.32175935453388, "lon": 26.08912293740279, "alt_km": 765.3935966502258, "timestamp": "2025-12-22T09:53:37.684798+00:00", "meta": {"OBJECT_NAME": "FENGYUN 1C DEB", "OBJECT_ID": "1999-025BZH", "EPOCH": "2025-12-22T03:07:18.840288", "MEAN_MOTION": 14.37496041, "ECCENTRICITY": 0.0023191, "INCLINATION": 98.9486, "RA_OF_ASC_NODE": 55.4239, "ARG_OF_PERICENTER": 325.6342, "MEAN_ANOMALY": 89.4799, "EPHEMERIS_TYPE": 0, "CLASSIFICATION_TYPE": "U", "NORAD_CAT_ID": 31566, "ELEMENT_SET_NO": 999, "REV_AT_EPOCH": 96526, "BSTAR": 0.0020123, "MEAN_MOTION_DOT": 6.001e-05, "MEAN_MOTION_DDOT": 0}, "tle": {"line1": "1 31566U 99025BZH 25356.13007917  .00006001  00000+0  20123-2 0  9991", "line2": "2 31566  98.9486  55.4239 0023191 325.6342  89.4799 14.37496041965269"}}, "geometry": {"type": "Point", "coordinates": [26.08912293740279, 72.32175935453388]}}, {"type": "Feature", "properties": {"norad_id": 31567, "name": "FENGYUN 1C DEB", "group": "fengyun-1c-debris", "lat": -71.12771823388388, "lon": 6.544110871714304, "alt_km": 806.7841580036438, "timestamp": "2025-12-22T09:53:37.684807+00:00", "meta": {"OBJECT_NAME": "FENGYUN 1C DEB", "OBJECT_ID": "1999-025BZJ", "EPOCH": "2025-12-19T11:42:14.577408", "MEAN_MOTION": 13.92929453, "ECCENTRICITY": 0.0186711, "INCLINATION": 102.3178, "RA_OF_ASC_NODE": 222.3955, "ARG_OF_PERICENTER": 292.5533, "MEAN_ANOMALY": 65.5952, "EPHEMERIS_TYPE": 0, "CLASSIFICATION_TYPE": "U", "NORAD_CAT_ID": 31567, "ELEMENT_SET_NO": 999, "REV_AT_EPOCH": 67503, "BSTAR": 0.0021757, "MEAN_MOTION_DOT": 3.189e-05, "MEAN_MOTION_DDOT": 0}, "tle": {"line1": "1 31567U 99025BZJ 25353.48766872  .00003189  00000+0  21757-2 0  9997", "line2": "2 31567 102.3178 222.3955 0186711 292.5533  65.5952 13.92929453675037"}}, "geometry": {"type": "Point", "coordinates": [6.544110871714304, -71.12771823388388]}}, {"type": "Feature", "properties": {"norad_id": 31568, "name": "FENGYUN 1C DEB", "group": "fengyun-1c-debris", "lat": 71.30175040882108, "lon": -157.50105730290832, "alt_km": 790.3801774651074, "timestamp": "2025-12-22T09:53:37.684817+00:00", "meta": {"OBJECT_NAME": "FENGYUN 1C DEB", "OBJECT_ID": "1999-025BZK", "EPOCH": "2025-12-20T21:36:33.612192", "MEAN_MOTION": 14.03410651, "ECCENTRICITY": 0.0123573, "INCLINATION": 102.0491, "RA_OF_ASC_NODE": 239.6323, "ARG_OF_PERICENTER": 99.1566, "MEAN_ANOMALY": 262.3592, "EPHEMERIS_TYPE": 0, "CLASSIFICATION_TYPE": "U", "NORAD_CAT_ID": 31568, "ELEMENT_SET_NO": 999, "REV_AT_EPOCH": 94694, "BSTAR": 0.0022372, "MEAN_MOTION_DOT": 3.678e-05, "MEAN_MOTION_DDOT": 0}, "tle": {"line1": "1 31568U 99025BZK 25354.90038903  .00003678  00000+0  22372-2 0  9990", "line2": "2 31568 102.0491 239.6323 0123573  99.1566 262.3592 14.03410651946943"}}, "geometry": {"type": "Point", "coordinates": [-157.50105730290832, 71.30175040882108]}}, {"type": "Feature", "properties": {"norad_id": 31569, "name": "FENGYUN 1C DEB", "group": "fengyun-1c-debris", "lat": -12.718007445304156, "lon": 160.05758882561122, "alt_km": 786.5831439816357, "timestamp": "2025-12-22T09:53:37.684827+00:00", "meta": {"OBJECT_NAME": "FENGYUN 1C DEB", "OBJECT_ID": "1999-025BZL", "EPOCH": "2025-12-21T16:50:08.005920", "MEAN_MOTION": 13.95583707, "ECCENTRICITY": 0.0174396, "INCLINATION": 102.6153, "RA_OF_ASC_NODE": 156.191, "ARG_OF_PERICENTER": 344.4994, "MEAN_ANOMALY": 33.1876, "EPHEMERIS_TYPE": 0, "CLASSIFICATION_TYPE": "U", "NORAD_CAT_ID": 31569, "ELEMENT_SET_NO": 999, "REV_AT_EPOCH": 93804, "BSTAR": 0.0017873, "MEAN_MOTION_DOT": 2.688e-05, "MEAN_MOTION_DDOT": 0}, "tle": {"line1": "1 31569U 99025BZL 25355.70148155  .00002688  00000+0  17873-2 0  9991", "line2": "2 31569 102.6153 156.1910 0174396 344.4994  33.1876 13.95583707938044"}}, "geometry": {"type": "Point", "coordinates": [160.05758882561122, -12.718007445304156]}}, {"type": "Feature", "properties": {"norad_id": 31570, "name": "FENGYUN 1C DEB", "group": "fengyun-1c-debris", "lat": -1.8677293028313293, "lon": -140.9352073797934, "alt_km": 704.5758189459048, "timestamp": "2025-12-22T09:53:37.684837+00:00", "meta": {"OBJECT_NAME": "FENGYUN 1C DEB", "OBJECT_ID": "1999-025BZM", "EPOCH": "2025-12-19T23:45:35.930016", "MEAN_MOTION": 14.25330142, "ECCENTRICITY": 0.01547682, "INCLINATION": 102.5663, "RA_OF_ASC_NODE": 36.0247, "ARG_OF_PERICENTER": 206.1842, "MEAN_ANOMALY": 153.1437, "EPHEMERIS_TYPE": 0, "CLASSIFICATION_TYPE": "U", "NORAD_CAT_ID": 31570, "ELEMENT_SET_NO": 999, "REV_AT_EPOCH": 63470, "BSTAR": 0.0019503601, "MEAN_MOTION_DOT": 5.132e-05, "MEAN_MOTION_DDOT": 0}, "tle": {"line1": "1 31570U 99025BZM 25353.98999919  .00005132  00000+0  19504-2 0  9993", "line2": "2 31570 102.5663  36.0247 0154768 206.1842 153.1437 14.25330142634706"}}, "geometry": {"type": "Point", "coordinates": [-140.9352073797934, -1.8677293028313293]}}, {"type": "Feature", "properties": {"norad_id": 31608, "name": "FENGYUN 1C DEB", "group": "fengyun-1c-debris", "lat": -40.036167893301716, "lon": -72.04580528947714, "alt_km": 701.00296109194, "timestamp": "2025-12-22T09:53:37.684847+00:00", "meta": {"OBJECT_NAME": "FENGYUN 1C DEB", "OBJECT_ID": "1999-025BZN", "EPOCH": "2025-12-17T14:09:29.850912", "MEAN_MOTION": 14.85908283, "ECCENTRICITY": 0.01457059, "INCLINATION": 98.3797, "RA_OF_ASC_NODE": 109.9897, "ARG_OF_PERICENTER": 22.0076, "MEAN_ANOMALY": 338.7309, "EPHEMERIS_TYPE": 0, "CLASSIFICATION_TYPE": "U", "NORAD_CAT_ID": 31608, "ELEMENT_SET_NO": 999, "REV_AT_EPOCH": 98705, "BSTAR": 0.00045964647, "MEAN_MOTION_DOT": 4.79e-05, "MEAN_MOTION_DDOT": 0}, "tle": {"line1": "1 31608U 99025BZN 25351.58992883  .00004790  00000+0  45965-3 0  9992", "line2": "2 31608  98.3797 109.9897 0145705  22.0076 338.7309 14.85908283987055"}}, "geometry": {"type": "Point", "coordinates": [-72.04580528947714, -40.036167893301716]}}, {"type": "Feature", "properties": {"norad_id": 31609, "name": "FENGYUN 1C DEB", "group": "fengyun-1c-debris", "lat": 42.94181370208615, "lon": -146.04563274404146, "alt_km": 898.6535740768195, "timestamp": "2025-12-22T09:53:37.684859+00:00", "meta": {"OBJECT_NAME": "FENGYUN 1C DEB", "OBJECT_ID": "1999-025BZP", "EPOCH": "2025-12-20T20:46:48.912960", "MEAN_MOTION": 14.15825877, "ECCENTRICITY": 0.0094875, "INCLINATION": 99.2149, "RA_OF_ASC_NODE": 23.6668, "ARG_OF_PERICENTER": 297.3351, "MEAN_ANOMALY": 241.7588, "EPHEMERIS_TYPE": 0, "CLASSIFICATION_TYPE": "U", "NORAD_CAT_ID": 31609, "ELEMENT_SET_NO": 999, "REV_AT_EPOCH": 66199, "BSTAR": 0.0014353472, "MEAN_MOTION_DOT": 2.9e-05, "MEAN_MOTION_DDOT": 0}, "tle": {"line1": "1 31609U 99025BZP 25354.86584390  .00002900  00000+0  14353-2 0  9994", "line2": "2 31609  99.2149  23.6668 0094875 297.3351 241.7588 14.15825877661993"}}, "geometry": {"type": "Point", "coordinates": [-146.04563274404146, 42.94181370208615]}}, {"type": "Feature", "properties": {"norad_id": 31612, "name": "FENGYUN 1C DEB", "group": "fengyun-1c-debris", "lat": -33.20173200803248, "lon": -76.51172159886497, "alt_km": 355.760353157375, "timestamp": "2025-12-22T09:53:37.684871+00:00", "meta": {"OBJECT_NAME": "FENGYUN 1C DEB", "OBJECT_ID": "1999-025BZS", "EPOCH": "2025-12-19T05:46:17.720832", "MEAN_MOTION": 15.73665045, "ECCENTRICITY": 0.0031005, "INCLINATION": 100.334, "RA_OF_ASC_NODE": 271.9263, "ARG_OF_PERICENTER": 82.9764, "MEAN_ANOMALY": 277.5014, "EPHEMERIS_TYPE": 0, "CLASSIFICATION_TYPE": "U", "NORAD_CAT_ID": 31612, "ELEMENT_SET_NO": 999, "REV_AT_EPOCH": 107, "BSTAR": 0.0015977, "MEAN_MOTION_DOT": 0.00236106, "MEAN_MOTION_DDOT": 0}, "tle": {"line1": "1 31612U 99025BZS 25353.24048288  .00236106  00000+0  15977-2 0  9990", "line2": "2 31612 100.3340 271.9263 0031005  82.9764 277.5014 15.73665045  1077"}}, "geometry": {"type": "Point", "coordinates": [-76.51172159886497, -33.20173200803248]}}, {"type": "Feature", "properties": {"norad_id": 31613, "name": "FENGYUN 1C DEB", "group": "fengyun-1c-debris", "lat": 69.33802223686338, "lon": 25.319756419676178, "alt_km": 791.4758432151775, "timestamp": "2025-12-22T09:53:37.684883+00:00", "meta": {"OBJECT_NAME": "FENGYUN 1C DEB", "OBJECT_ID": "1999-025BZT", "EPOCH": "2025-12-20T06:18:56.611008", "MEAN_MOTION": 13.63462471, "ECCENTRICITY": 0.03426757, "INCLINATION": 98.4235, "RA_OF_ASC_NODE": 180.3179, "ARG_OF_PERICENTER": 86.1054, "MEAN_ANOMALY": 277.919, "EPHEMERIS_TYPE": 0, "CLASSIFICATION_TYPE": "U", "NORAD_CAT_ID": 31613, "ELEMENT_SET_NO": 999, "REV_AT_EPOCH": 91864, "BSTAR": 0.00096915007, "MEAN_MOTION_DOT": 1.104e-05, "MEAN_MOTION_DDOT": 0}, "tle": {"line1": "1 31613U 99025BZT 25354.26315522  .00001104  00000+0  96915-3 0  9992", "line2": "2 31613  98.4235 180.3179 0342675  86.1054 277.9190 13.63462471918647"}}, "geometry": {"type": "Point", "coordinates": [25.319756419676178, 69.33802223686338]}}, {"type": "Feature", "properties": {"norad_id": 31614, "name": "FENGYUN 1C DEB", "group": "fengyun-1c-debris", "lat": 21.430785714871597, "lon": 87.19601183916004, "alt_km": 583.2472328624372, "timestamp": "2025-12-22T09:53:37.684892+00:00", "meta": {"OBJECT_NAME": "FENGYUN 1C DEB", "OBJECT_ID": "1999-025BZU", "EPOCH": "2025-12-21T17:25:42.441024", "MEAN_MOTION": 14.98821604, "ECCENTRICITY": 0.0018982, "INCLINATION": 98.9753, "RA_OF_ASC_NODE": 262.8503, "ARG_OF_PERICENTER": 341.7496, "MEAN_ANOMALY": 76.7249, "EPHEMERIS_TYPE": 0, "CLASSIFICATION_TYPE": "U", "NORAD_CAT_ID": 31614, "ELEMENT_SET_NO": 999, "REV_AT_EPOCH": 96564, "BSTAR": 0.0064936, "MEAN_MOTION_DOT": 0.00079386, "MEAN_MOTION_DDOT": 0}, "tle": {"line1": "1 31614U 99025BZU 25355.72618566  .00079386  00000+0  64936-2 0  9993", "line2": "2 31614  98.9753 262.8503 0018982 341.7496  76.7249 14.98821604965644"}}, "geometry": {"type": "Point", "coordinates": [87.19601183916004, 21.430785714871597]}}]}